<?xml version="1.0" encoding="UTF-8"?>
<ndm xmlns:xsi="http://www.w3.org/2001/XMLSchema-instance" xsi:noNamespaceSchemaLocation="https://sanaregistry.org/r/ndmxml_unqualified/ndmxml-2.0.0-master-2.0.xsd">
<omm id="CCSDS_OMM_VERS" version="2.0">
<header><CREATION_DATE/><ORIGINATOR/></header><body><segment><metadata><OBJECT_NAME>ORBCOMM FM33</OBJECT_NAME><OBJECT_ID>1999-065D</OBJECT_ID><CENTER_NAME>EARTH</CENTER_NAME><REF_FRAME>TEME</REF_FRAME><TIME_SYSTEM>UTC</TIME_SYSTEM><MEAN_ELEMENT_THEORY>SGP4</MEAN_ELEMENT_THEORY></metadata><data><meanElements><EPOCH>2025-12-01T13:07:13.145088</EPOCH><MEAN_MOTION>14.40484826</MEAN_MOTION><ECCENTRICITY>.00072589</ECCENTRICITY><INCLINATION>45.0293</INCLINATION><RA_OF_ASC_NODE>283.0237</RA_OF_ASC_NODE><ARG_OF_PERICENTER>197.0384</ARG_OF_PERICENTER><MEAN_ANOMALY>163.0223</MEAN_ANOMALY></meanElements><tleParameters><EPHEMERIS_TYPE>0</EPHEMERIS_TYPE><CLASSIFICATION_TYPE>U</CLASSIFICATION_TYPE><NORAD_CAT_ID>25983</NORAD_CAT_ID><ELEMENT_SET_NO>999</ELEMENT_SET_NO><REV_AT_EPOCH>36019</REV_AT_EPOCH><BSTAR>.47708229E-3</BSTAR><MEAN_MOTION_DOT>.1389E-4</MEAN_MOTION_DOT><MEAN_MOTION_DDOT>0</MEAN_MOTION_DDOT></tleParameters></data></segment></body></omm>
<omm id="CCSDS_OMM_VERS" version="2.0">
<header><CREATION_DATE/><ORIGINATOR/></header><body><segment><metadata><OBJECT_NAME>ORBCOMM FM36</OBJECT_NAME><OBJECT_ID>1999-065E</OBJECT_ID><CENTER_NAME>EARTH</CENTER_NAME><REF_FRAME>TEME</REF_FRAME><TIME_SYSTEM>UTC</TIME_SYSTEM><MEAN_ELEMENT_THEORY>SGP4</MEAN_ELEMENT_THEORY></metadata><data><meanElements><EPOCH>2025-12-02T03:27:18.607968</EPOCH><MEAN_MOTION>14.38661496</MEAN_MOTION><ECCENTRICITY>.0000786</ECCENTRICITY><INCLINATION>45.0402</INCLINATION><RA_OF_ASC_NODE>14.6592</RA_OF_ASC_NODE><ARG_OF_PERICENTER>33.0025</ARG_OF_PERICENTER><MEAN_ANOMALY>327.0873</MEAN_ANOMALY></meanElements><tleParameters><EPHEMERIS_TYPE>0</EPHEMERIS_TYPE><CLASSIFICATION_TYPE>U</CLASSIFICATION_TYPE><NORAD_CAT_ID>25984</NORAD_CAT_ID><ELEMENT_SET_NO>999</ELEMENT_SET_NO><REV_AT_EPOCH>35860</REV_AT_EPOCH><BSTAR>.56229E-3</BSTAR><MEAN_MOTION_DOT>.1597E-4</MEAN_MOTION_DOT><MEAN_MOTION_DDOT>0</MEAN_MOTION_DDOT></tleParameters></data></segment></body></omm>
<omm id="CCSDS_OMM_VERS" version="2.0">
<header><CREATION_DATE/><ORIGINATOR/></header><body><segment><metadata><OBJECT_NAME>ORBCOMM FM35</OBJECT_NAME><OBJECT_ID>1999-065F</OBJECT_ID><CENTER_NAME>EARTH</CENTER_NAME><REF_FRAME>TEME</REF_FRAME><TIME_SYSTEM>UTC</TIME_SYSTEM><MEAN_ELEMENT_THEORY>SGP4</MEAN_ELEMENT_THEORY></metadata><data><meanElements><EPOCH>2025-12-02T02:35:19.822848</EPOCH><MEAN_MOTION>14.37573015</MEAN_MOTION><ECCENTRICITY>.0004145</ECCENTRICITY><INCLINATION>45.0406</INCLINATION><RA_OF_ASC_NODE>21.2270</RA_OF_ASC_NODE><ARG_OF_PERICENTER>189.6215</ARG_OF_PERICENTER><MEAN_ANOMALY>170.4555</MEAN_ANOMALY></meanElements><tleParameters><EPHEMERIS_TYPE>0</EPHEMERIS_TYPE><CLASSIFICATION_TYPE>U</CLASSIFICATION_TYPE><NORAD_CAT_ID>25985</NORAD_CAT_ID><ELEMENT_SET_NO>999</ELEMENT_SET_NO><REV_AT_EPOCH>35894</REV_AT_EPOCH><BSTAR>.48817E-3</BSTAR><MEAN_MOTION_DOT>.1335E-4</MEAN_MOTION_DOT><MEAN_MOTION_DDOT>0</MEAN_MOTION_DDOT></tleParameters></data></segment></body></omm>
<omm id="CCSDS_OMM_VERS" version="2.0">
<header><CREATION_DATE/><ORIGINATOR/></header><body><segment><metadata><OBJECT_NAME>ORBCOMM FM34</OBJECT_NAME><OBJECT_ID>1999-065G</OBJECT_ID><CENTER_NAME>EARTH</CENTER_NAME><REF_FRAME>TEME</REF_FRAME><TIME_SYSTEM>UTC</TIME_SYSTEM><MEAN_ELEMENT_THEORY>SGP4</MEAN_ELEMENT_THEORY></metadata><data><meanElements><EPOCH>2025-12-02T03:26:48.775776</EPOCH><MEAN_MOTION>14.37530335</MEAN_MOTION><ECCENTRICITY>.0002401</ECCENTRICITY><INCLINATION>45.0400</INCLINATION><RA_OF_ASC_NODE>21.5220</RA_OF_ASC_NODE><ARG_OF_PERICENTER>139.0609</ARG_OF_PERICENTER><MEAN_ANOMALY>221.0420</MEAN_ANOMALY></meanElements><tleParameters><EPHEMERIS_TYPE>0</EPHEMERIS_TYPE><CLASSIFICATION_TYPE>U</CLASSIFICATION_TYPE><NORAD_CAT_ID>25986</NORAD_CAT_ID><ELEMENT_SET_NO>999</ELEMENT_SET_NO><REV_AT_EPOCH>35906</REV_AT_EPOCH><BSTAR>.41637E-3</BSTAR><MEAN_MOTION_DOT>.1117E-4</MEAN_MOTION_DOT><MEAN_MOTION_DDOT>0</MEAN_MOTION_DDOT></tleParameters></data></segment></body></omm>
<omm id="CCSDS_OMM_VERS" version="2.0">
<header><CREATION_DATE/><ORIGINATOR/></header><body><segment><metadata><OBJECT_NAME>ORBCOMM FM38</OBJECT_NAME><OBJECT_ID>2008-031A</OBJECT_ID><CENTER_NAME>EARTH</CENTER_NAME><REF_FRAME>TEME</REF_FRAME><TIME_SYSTEM>UTC</TIME_SYSTEM><MEAN_ELEMENT_THEORY>SGP4</MEAN_ELEMENT_THEORY></metadata><data><meanElements><EPOCH>2025-12-02T03:06:01.277280</EPOCH><MEAN_MOTION>14.82189108</MEAN_MOTION><ECCENTRICITY>.0004576</ECCENTRICITY><INCLINATION>48.4391</INCLINATION><RA_OF_ASC_NODE>234.4445</RA_OF_ASC_NODE><ARG_OF_PERICENTER>44.2222</ARG_OF_PERICENTER><MEAN_ANOMALY>315.9059</MEAN_ANOMALY></meanElements><tleParameters><EPHEMERIS_TYPE>0</EPHEMERIS_TYPE><CLASSIFICATION_TYPE>U</CLASSIFICATION_TYPE><NORAD_CAT_ID>33060</NORAD_CAT_ID><ELEMENT_SET_NO>999</ELEMENT_SET_NO><REV_AT_EPOCH>93965</REV_AT_EPOCH><BSTAR>.31646E-3</BSTAR><MEAN_MOTION_DOT>.2334E-4</MEAN_MOTION_DOT><MEAN_MOTION_DDOT>0</MEAN_MOTION_DDOT></tleParameters></data></segment></body></omm>
<omm id="CCSDS_OMM_VERS" version="2.0">
<header><CREATION_DATE/><ORIGINATOR/></header><body><segment><metadata><OBJECT_NAME>ORBCOMM FM41</OBJECT_NAME><OBJECT_ID>2008-031B</OBJECT_ID><CENTER_NAME>EARTH</CENTER_NAME><REF_FRAME>TEME</REF_FRAME><TIME_SYSTEM>UTC</TIME_SYSTEM><MEAN_ELEMENT_THEORY>SGP4</MEAN_ELEMENT_THEORY></metadata><data><meanElements><EPOCH>2025-12-02T03:25:00.876000</EPOCH><MEAN_MOTION>14.81746920</MEAN_MOTION><ECCENTRICITY>.0003876</ECCENTRICITY><INCLINATION>48.4428</INCLINATION><RA_OF_ASC_NODE>242.7547</RA_OF_ASC_NODE><ARG_OF_PERICENTER>26.3613</ARG_OF_PERICENTER><MEAN_ANOMALY>127.9094</MEAN_ANOMALY></meanElements><tleParameters><EPHEMERIS_TYPE>0</EPHEMERIS_TYPE><CLASSIFICATION_TYPE>U</CLASSIFICATION_TYPE><NORAD_CAT_ID>33061</NORAD_CAT_ID><ELEMENT_SET_NO>999</ELEMENT_SET_NO><REV_AT_EPOCH>93913</REV_AT_EPOCH><BSTAR>.34105E-3</BSTAR><MEAN_MOTION_DOT>.2504E-4</MEAN_MOTION_DOT><MEAN_MOTION_DDOT>0</MEAN_MOTION_DDOT></tleParameters></data></segment></body></omm>
<omm id="CCSDS_OMM_VERS" version="2.0">
<header><CREATION_DATE/><ORIGINATOR/></header><body><segment><metadata><OBJECT_NAME>ORBCOMM FM29</OBJECT_NAME><OBJECT_ID>2008-031C</OBJECT_ID><CENTER_NAME>EARTH</CENTER_NAME><REF_FRAME>TEME</REF_FRAME><TIME_SYSTEM>UTC</TIME_SYSTEM><MEAN_ELEMENT_THEORY>SGP4</MEAN_ELEMENT_THEORY></metadata><data><meanElements><EPOCH>2025-12-02T04:19:47.297856</EPOCH><MEAN_MOTION>14.81889265</MEAN_MOTION><ECCENTRICITY>.0005574</ECCENTRICITY><INCLINATION>48.4381</INCLINATION><RA_OF_ASC_NODE>250.1592</RA_OF_ASC_NODE><ARG_OF_PERICENTER>26.6460</ARG_OF_PERICENTER><MEAN_ANOMALY>125.7689</MEAN_ANOMALY></meanElements><tleParameters><EPHEMERIS_TYPE>0</EPHEMERIS_TYPE><CLASSIFICATION_TYPE>U</CLASSIFICATION_TYPE><NORAD_CAT_ID>33062</NORAD_CAT_ID><ELEMENT_SET_NO>999</ELEMENT_SET_NO><REV_AT_EPOCH>93905</REV_AT_EPOCH><BSTAR>.35266E-3</BSTAR><MEAN_MOTION_DOT>.2606E-4</MEAN_MOTION_DOT><MEAN_MOTION_DDOT>0</MEAN_MOTION_DDOT></tleParameters></data></segment></body></omm>
<omm id="CCSDS_OMM_VERS" version="2.0">
<header><CREATION_DATE/><ORIGINATOR/></header><body><segment><metadata><OBJECT_NAME>ORBCOMM FM39</OBJECT_NAME><OBJECT_ID>2008-031D</OBJECT_ID><CENTER_NAME>EARTH</CENTER_NAME><REF_FRAME>TEME</REF_FRAME><TIME_SYSTEM>UTC</TIME_SYSTEM><MEAN_ELEMENT_THEORY>SGP4</MEAN_ELEMENT_THEORY></metadata><data><meanElements><EPOCH>2025-12-01T06:31:32.124576</EPOCH><MEAN_MOTION>14.80329673</MEAN_MOTION><ECCENTRICITY>.00067756</ECCENTRICITY><INCLINATION>48.4398</INCLINATION><RA_OF_ASC_NODE>280.6511</RA_OF_ASC_NODE><ARG_OF_PERICENTER>351.9367</ARG_OF_PERICENTER><MEAN_ANOMALY>8.1439</MEAN_ANOMALY></meanElements><tleParameters><EPHEMERIS_TYPE>0</EPHEMERIS_TYPE><CLASSIFICATION_TYPE>U</CLASSIFICATION_TYPE><NORAD_CAT_ID>33063</NORAD_CAT_ID><ELEMENT_SET_NO>999</ELEMENT_SET_NO><REV_AT_EPOCH>93854</REV_AT_EPOCH><BSTAR>.3349277E-3</BSTAR><MEAN_MOTION_DOT>.2369E-4</MEAN_MOTION_DOT><MEAN_MOTION_DDOT>0</MEAN_MOTION_DDOT></tleParameters></data></segment></body></omm>

</ndm>
