ORBCOMM FM33            
1 25983U 99065D   25335.54667992  .00001389  00000+0  47708-3 0  9991
2 25983  45.0293 283.0237 0007258 197.0384 163.0223 14.40484826360198
ORBCOMM FM36            
1 25984U 99065E   25336.14396537  .00001597  00000+0  56229-3 0  9992
2 25984  45.0402  14.6592 0000786  33.0025 327.0873 14.38661496358606
ORBCOMM FM35            
1 25985U 99065F   25336.10786832  .00001335  00000+0  48817-3 0  9994
2 25985  45.0406  21.2270 0004145 189.6215 170.4555 14.37573015358942
ORBCOMM FM34            
1 25986U 99065G   25336.14362009  .00001117  00000+0  41637-3 0  9996
2 25986  45.0400  21.5220 0002401 139.0609 221.0420 14.37530335359060
ORBCOMM FM38            
1 33060U 08031A   25336.12918145  .00002334  00000+0  31646-3 0  9998
2 33060  48.4391 234.4445 0004576  44.2222 315.9059 14.82189108939653
ORBCOMM FM41            
1 33061U 08031B   25336.14237125  .00002504  00000+0  34105-3 0  9995
2 33061  48.4428 242.7547 0003876  26.3613 127.9094 14.81746920939130
ORBCOMM FM29            
1 33062U 08031C   25336.18040854  .00002606  00000+0  35266-3 0  9993
2 33062  48.4381 250.1592 0005574  26.6460 125.7689 14.81889265939059
ORBCOMM FM39            
1 33063U 08031D   25335.27189959  .00002369  00000+0  33493-3 0  9999
2 33063  48.4398 280.6511 0006775 351.9367   8.1439 14.80329673938542
